CTC1_L_00215016-03
1 10062U 23781YF  26075.70032407  .00000000  00000+0  00000-0 0  9992
2 10062  85.0000 180.0000 0000000   0.0000   0.0000 13.42494874    10
CTC1_L_00215016-04
1 10063U 23831MY  26075.70032407  .00000000  00000+0  00000-0 0  9999
2 10063  85.0000 180.0000 0000000   0.0000  90.0000 13.42494874    10
CTC1_L_00215017-01
1 10064U 23297ON  26075.70032407  .00000000  00000+0  00000-0 0  9996
2 10064  85.0000 192.0000 0000000   0.0000 192.0000 13.42494874    17
CTC1_L_00215017-02
1 10065U 24933GP  26075.70032407  .00000000  00000+0  00000-0 0  9995
2 10065  85.0000 192.0000 0000000   0.0000 282.0000 13.42494874    18
CTC1_L_00215017-03
1 10066U 25415ZI  26075.70032407  .00000000  00000+0  00000-0 0  9992
2 10066  85.0000 192.0000 0000000   0.0000  12.0000 13.42494874    10
CTC1_L_00215017-04
1 10067U 26744UH  26075.70032407  .00000000  00000+0  00000-0 0  9999
2 10067  85.0000 192.0000 0000000   0.0000 102.0000 13.42494874    11
CTC1_L_00215018-01
1 10068U 23564BE  26075.70032407  .00000000  00000+0  00000-0 0  9997
2 10068  85.0000 204.0000 0000000   0.0000 204.0000 13.42494874    19
CTC1_L_00215018-02
1 10069U 24674JB  26075.70032407  .00000000  00000+0  00000-0 0  9991
2 10069  85.0000 204.0000 0000000   0.0000 294.0000 13.42494874    19
CTC1_L_00215018-03
1 10070U 23379TF  26075.70032407  .00000000  00000+0  00000-0 0  9994
2 10070  85.0000 204.0000 0000000   0.0000  24.0000 13.42494874    12
CTC1_L_00215018-04
1 10071U 25394FM  26075.70032407  .00000000  00000+0  00000-0 0  9994
2 10071  85.0000 204.0000 0000000   0.0000 114.0000 13.42494874    13
CTC1_L_00215019-01
1 10072U 25988RT  26075.70032407  .00000000  00000+0  00000-0 0  9994
2 10072  85.0000 216.0000 0000000   0.0000 216.0000 13.42494874    10
CTC1_L_00215019-02
1 10073U 26262VL  26075.70032407  .00000000  00000+0  00000-0 0  9991
2 10073  85.0000 216.0000 0000000   0.0000 306.0000 13.42494874    11
CTC1_L_00215019-03
1 10074U 23043QN  26075.70032407  .00000000  00000+0  00000-0 0  9996
2 10074  85.0000 216.0000 0000000   0.0000  36.0000 13.42494874    12
CTC1_L_00215019-04
1 10075U 26329UF  26075.70032407  .00000000  00000+0  00000-0 0  9997
2 10075  85.0000 216.0000 0000000   0.0000 126.0000 13.42494874    13
CTC1_L_00215020-01
1 10076U 25165II  26075.70032407  .00000000  00000+0  00000-0 0  9995
2 10076  85.0000 228.0000 0000000   0.0000 228.0000 13.42494874    10
CTC1_L_00215020-02
1 10077U 22834DM  26075.70032407  .00000000  00000+0  00000-0 0  9996
2 10077  85.0000 228.0000 0000000   0.0000 318.0000 13.42494874    11
CTC1_L_00215020-03
1 10078U 22948DS  26075.70032407  .00000000  00000+0  00000-0 0  9993
2 10078  85.0000 228.0000 0000000   0.0000  48.0000 13.42494874    12
CTC1_L_00215020-04
1 10079U 22713WB  26075.70032407  .00000000  00000+0  00000-0 0  9994
2 10079  85.0000 228.0000 0000000   0.0000 138.0000 13.42494874    13
CTC1_L_00215021-01
1 10080U 25280FU  26075.70032407  .00000000  00000+0  00000-0 0  9998
2 10080  85.0000 240.0000 0000000   0.0000 240.0000 13.42494874    13
CTC1_L_00215021-02
1 10081U 24262UI  26075.70032407  .00000000  00000+0  00000-0 0  9998
2 10081  85.0000 240.0000 0000000   0.0000 330.0000 13.42494874    14
CTC1_L_00215021-03
1 10082U 24942AM  26075.70032407  .00000000  00000+0  00000-0 0  9994
2 10082  85.0000 240.0000 0000000   0.0000  60.0000 13.42494874    15
CTC1_L_00215021-04
1 10083U 23191QB  26075.70032407  .00000000  00000+0  00000-0 0  9990
2 10083  85.0000 240.0000 0000000   0.0000 150.0000 13.42494874    16
CTC1_L_00215022-01
1 10084U 26816TO  26075.70032407  .00000000  00000+0  00000-0 0  9998
2 10084  85.0000 252.0000 0000000   0.0000 252.0000 13.42494874    13
CTC1_L_00215022-02
1 10085U 23179HW  26075.70032407  .00000000  00000+0  00000-0 0  9998
2 10085  85.0000 252.0000 0000000   0.0000 342.0000 13.42494874    14
CTC1_L_00215022-03
1 10086U 26326WS  26075.70032407  .00000000  00000+0  00000-0 0  9996
2 10086  85.0000 252.0000 0000000   0.0000  72.0000 13.42494874    15
CTC1_L_00215022-04
1 10087U 23539NV  26075.70032407  .00000000  00000+0  00000-0 0  9990
2 10087  85.0000 252.0000 0000000   0.0000 162.0000 13.42494874    16
CTC1_L_00215023-01
1 10088U 22757HV  26075.70032407  .00000000  00000+0  00000-0 0  9992
2 10088  85.0000 264.0000 0000000   0.0000 264.0000 13.42494874    13
CTC1_L_00215023-02
1 10089U 25792LJ  26075.70032407  .00000000  00000+0  00000-0 0  9995
2 10089  85.0000 264.0000 0000000   0.0000 354.0000 13.42494874    14
CTC1_L_00215023-03
1 10090U 22380OI  26075.70032407  .00000000  00000+0  00000-0 0  9997
2 10090  85.0000 264.0000 0000000   0.0000  84.0000 13.42494874    16
CTC1_L_00215023-04
1 10091U 26445GC  26075.70032407  .00000000  00000+0  00000-0 0  9994
2 10091  85.0000 264.0000 0000000   0.0000 174.0000 13.42494874    17
CTC1_L_00215024-01
1 10092U 24260AX  26075.70032407  .00000000  00000+0  00000-0 0  9998
2 10092  85.0000 276.0000 0000000   0.0000 276.0000 13.42494874    14
CTC1_L_00215024-02
1 10093U 24138WF  26075.70032407  .00000000  00000+0  00000-0 0  9993
2 10093  85.0000 276.0000 0000000   0.0000   6.0000 13.42494874    16
CTC1_L_00215024-03
1 10094U 24009CJ  26075.70032407  .00000000  00000+0  00000-0 0  9991
2 10094  85.0000 276.0000 0000000   0.0000  96.0000 13.42494874    16
CTC1_L_00215024-04
1 10095U 23470FX  26075.70032407  .00000000  00000+0  00000-0 0  9993
2 10095  85.0000 276.0000 0000000   0.0000 186.0000 13.42494874    17
CTC1_L_00215025-01
1 10096U 25776UO  26075.70032407  .00000000  00000+0  00000-0 0  9995
2 10096  85.0000 288.0000 0000000   0.0000 288.0000 13.42494874    14
CTC1_L_00215025-02
1 10097U 25864RL  26075.70032407  .00000000  00000+0  00000-0 0  9994
2 10097  85.0000 288.0000 0000000   0.0000  18.0000 13.42494874    16
CTC1_L_00215025-03
1 10098U 23781HP  26075.70032407  .00000000  00000+0  00000-0 0  9991
2 10098  85.0000 288.0000 0000000   0.0000 108.0000 13.42494874    17
CTC1_L_00215025-04
1 10099U 24659DI  26075.70032407  .00000000  00000+0  00000-0 0  9997
2 10099  85.0000 288.0000 0000000   0.0000 198.0000 13.42494874    17
CTC1_L_00215026-01
1 10100U 22163FY  26075.70032407  .00000000  00000+0  00000-0 0  9998
2 10100  85.0000 300.0000 0000000   0.0000 300.0000 13.42494874    10
CTC1_L_00215026-02
1 10101U 22727RJ  26075.70032407  .00000000  00000+0  00000-0 0  9995
2 10101  85.0000 300.0000 0000000   0.0000  30.0000 13.42494874    11
CTC1_L_00215026-03
1 10102U 26636SD  26075.70032407  .00000000  00000+0  00000-0 0  9999
2 10102  85.0000 300.0000 0000000   0.0000 120.0000 13.42494874    12
CTC1_L_00215026-04
1 10103U 24379AI  26075.70032407  .00000000  00000+0  00000-0 0  9992
2 10103  85.0000 300.0000 0000000   0.0000 210.0000 13.42494874    13
CTC1_L_00215027-01
1 10104U 26344LZ  26075.70032407  .00000000  00000+0  00000-0 0  9997
2 10104  85.0000 312.0000 0000000   0.0000 312.0000 13.42494874    10
CTC1_L_00215027-02
1 10105U 22651QG  26075.70032407  .00000000  00000+0  00000-0 0  9995
2 10105  85.0000 312.0000 0000000   0.0000  42.0000 13.42494874    11
CTC1_L_00215027-03
1 10106U 22771RZ  26075.70032407  .00000000  00000+0  00000-0 0  9999
2 10106  85.0000 312.0000 0000000   0.0000 132.0000 13.42494874    12
CTC1_L_00215027-04
1 10107U 24303FH  26075.70032407  .00000000  00000+0  00000-0 0  9993
2 10107  85.0000 312.0000 0000000   0.0000 222.0000 13.42494874    13
CTC1_L_00215028-01
1 10108U 22478YQ  26075.70032407  .00000000  00000+0  00000-0 0  9995
2 10108  85.0000 324.0000 0000000   0.0000 324.0000 13.42494874    10
CTC1_L_00215028-02
1 10109U 26361ZD  26075.70032407  .00000000  00000+0  00000-0 0  9991
2 10109  85.0000 324.0000 0000000   0.0000  54.0000 13.42494874    11
CTC1_L_00215028-03
1 10110U 23916LQ  26075.70032407  .00000000  00000+0  00000-0 0  9996
2 10110  85.0000 324.0000 0000000   0.0000 144.0000 13.42494874    13
CTC1_L_00215028-04
1 10111U 22346IP  26075.70032407  .00000000  00000+0  00000-0 0  9993
2 10111  85.0000 324.0000 0000000   0.0000 234.0000 13.42494874    14
CTC1_L_00215029-01
1 10112U 26845SP  26075.70032407  .00000000  00000+0  00000-0 0  9992
2 10112  85.0000 336.0000 0000000   0.0000 336.0000 13.42494874    11
CTC1_L_00215029-02
1 10113U 22147JS  26075.70032407  .00000000  00000+0  00000-0 0  9994
2 10113  85.0000 336.0000 0000000   0.0000  66.0000 13.42494874    12
CTC1_L_00215029-03
1 10114U 25069OF  26075.70032407  .00000000  00000+0  00000-0 0  9991
2 10114  85.0000 336.0000 0000000   0.0000 156.0000 13.42494874    13
CTC1_L_00215029-04
1 10115U 22949CR  26075.70032407  .00000000  00000+0  00000-0 0  9996
2 10115  85.0000 336.0000 0000000   0.0000 246.0000 13.42494874    14
CTC1_L_00215030-01
1 10116U 25901WY  26075.70032407  .00000000  00000+0  00000-0 0  9998
2 10116  85.0000 348.0000 0000000   0.0000 348.0000 13.42494874    11
CTC1_L_00215030-02
1 10117U 26905UW  26075.70032407  .00000000  00000+0  00000-0 0  9994
2 10117  85.0000 348.0000 0000000   0.0000  78.0000 13.42494874    12
CTC1_L_00215030-03
1 10118U 26035U   26075.70032407  .00000000  00000+0  00000-0 0  9999
2 10118  85.0000 348.0000 0000000   0.0000 168.0000 13.42494874    13
CTC1_L_00215030-04
1 10119U 22722RQ  26075.70032407  .00000000  00000+0  00000-0 0  9999
2 10119  85.0000 348.0000 0000000   0.0000 258.0000 13.42494874    14
